{
  "type": "FeatureCollection",
  "features": [
    {
      "type": "Feature",
      "properties": {
        "norad_id": 28890,
        "name": "BEIJING 1",
        "group": "dmc",
        "lat": -32.182310934814254,
        "lon": -75.59292767055008,
        "alt_km": 682.6739982401341,
        "timestamp": "2025-12-08T03:50:06.671414+00:00",
        "meta_object_name": "BEIJING 1",
        "meta_object_id": "2005-043A",
        "meta_epoch": "2025-12-07T07:10:32.844000",
        "meta_mean_motion": 14.63358455,
        "meta_eccentricity": 0.00150769,
        "meta_inclination": 98.2657,
        "meta_ra_of_asc_node": 108.7933,
        "meta_arg_of_pericenter": 157.839,
        "meta_mean_anomaly": 202.3467,
        "meta_ephemeris_type": 0,
        "meta_classification_type": "U",
        "meta_norad_cat_id": 28890,
        "meta_element_set_no": 999,
        "meta_rev_at_epoch": 7258,
        "meta_bstar": 0.00016966698,
        "meta_mean_motion_dot": 8.29e-06,
        "meta_mean_motion_ddot": 0,
        "tle_line1": "1 28890U 05043A   25341.29899125  .00000829  00000+0  16967-3 0  9999",
        "tle_line2": "2 28890  98.2657 108.7933 0015076 157.8390 202.3467 14.63358455 72589"
      },
      "geometry": {
        "type": "Point",
        "coordinates": [
          -75.59292767055008,
          -32.182310934814254
        ]
      }
    },
    {
      "type": "Feature",
      "properties": {
        "norad_id": 33320,
        "name": "HUANJING 1A (HJ-1A)",
        "group": "dmc",
        "lat": -82.33982933148259,
        "lon": 59.56190897541463,
        "alt_km": 636.7971300658928,
        "timestamp": "2025-12-08T03:50:06.671438+00:00",
        "meta_object_name": "HUANJING 1A (HJ-1A)",
        "meta_object_id": "2008-041A",
        "meta_epoch": "2025-12-07T07:11:37.778784",
        "meta_mean_motion": 14.83368551,
        "meta_eccentricity": 0.00204787,
        "meta_inclination": 97.6537,
        "meta_ra_of_asc_node": 329.8253,
        "meta_arg_of_pericenter": 51.5636,
        "meta_mean_anomaly": 308.7412,
        "meta_ephemeris_type": 0,
        "meta_classification_type": "U",
        "meta_norad_cat_id": 33320,
        "meta_element_set_no": 999,
        "meta_rev_at_epoch": 92995,
        "meta_bstar": 0.00034793522,
        "meta_mean_motion_dot": 2.812e-05,
        "meta_mean_motion_ddot": 0,
        "tle_line1": "1 33320U 08041A   25341.29974281  .00002812  00000+0  34794-3 0  9993",
        "tle_line2": "2 33320  97.6537 329.8253 0020478  51.5636 308.7412 14.83368551929952"
      },
      "geometry": {
        "type": "Point",
        "coordinates": [
          59.56190897541463,
          -82.33982933148259
        ]
      }
    },
    {
      "type": "Feature",
      "properties": {
        "norad_id": 33321,
        "name": "HUANJING 1B (HJ-1B)",
        "group": "dmc",
        "lat": 38.34951721112969,
        "lon": 160.45403737184583,
        "alt_km": 600.7413339959376,
        "timestamp": "2025-12-08T03:50:06.671453+00:00",
        "meta_object_name": "HUANJING 1B (HJ-1B)",
        "meta_object_id": "2008-041B",
        "meta_epoch": "2025-12-07T06:09:00.096768",
        "meta_mean_motion": 14.82799882,
        "meta_eccentricity": 0.00382502,
        "meta_inclination": 97.6395,
        "meta_ra_of_asc_node": 333.4949,
        "meta_arg_of_pericenter": 93.1614,
        "meta_mean_anomaly": 267.3977,
        "meta_ephemeris_type": 0,
        "meta_classification_type": "U",
        "meta_norad_cat_id": 33321,
        "meta_element_set_no": 999,
        "meta_rev_at_epoch": 92996,
        "meta_bstar": 0.00028937528,
        "meta_mean_motion_dot": 2.319e-05,
        "meta_mean_motion_ddot": 0,
        "tle_line1": "1 33321U 08041B   25341.25625112  .00002319  00000+0  28938-3 0  9991",
        "tle_line2": "2 33321  97.6395 333.4949 0038250  93.1614 267.3977 14.82799882929964"
      },
      "geometry": {
        "type": "Point",
        "coordinates": [
          160.45403737184583,
          38.34951721112969
        ]
      }
    },
    {
      "type": "Feature",
      "properties": {
        "norad_id": 33446,
        "name": "YAOGAN-4",
        "group": "dmc",
        "lat": 53.97021449756957,
        "lon": -98.72724960451731,
        "alt_km": 613.4330495661616,
        "timestamp": "2025-12-08T03:50:06.671466+00:00",
        "meta_object_name": "YAOGAN-4",
        "meta_object_id": "2008-061A",
        "meta_epoch": "2025-12-07T06:32:00.675456",
        "meta_mean_motion": 14.82655941,
        "meta_eccentricity": 0.00140606,
        "meta_inclination": 97.9176,
        "meta_ra_of_asc_node": 271.4251,
        "meta_arg_of_pericenter": 341.8774,
        "meta_mean_anomaly": 18.1937,
        "meta_ephemeris_type": 0,
        "meta_classification_type": "U",
        "meta_norad_cat_id": 33446,
        "meta_element_set_no": 999,
        "meta_rev_at_epoch": 91722,
        "meta_bstar": 0.0003352026,
        "meta_mean_motion_dot": 2.652e-05,
        "meta_mean_motion_ddot": 0,
        "tle_line1": "1 33446U 08061A   25341.27223004  .00002652  00000+0  33520-3 0  9990",
        "tle_line2": "2 33446  97.9176 271.4251 0014060 341.8774  18.1937 14.82655941917223"
      },
      "geometry": {
        "type": "Point",
        "coordinates": [
          -98.72724960451731,
          53.97021449756957
        ]
      }
    },
    {
      "type": "Feature",
      "properties": {
        "norad_id": 35681,
        "name": "DEIMOS-1",
        "group": "dmc",
        "lat": -47.80838572229745,
        "lon": 151.57759504386698,
        "alt_km": 653.5442200769357,
        "timestamp": "2025-12-08T03:50:06.671477+00:00",
        "meta_object_name": "DEIMOS-1",
        "meta_object_id": "2009-041A",
        "meta_epoch": "2025-12-07T06:53:16.658304",
        "meta_mean_motion": 14.74940019,
        "meta_eccentricity": 0.00026955,
        "meta_inclination": 97.7153,
        "meta_ra_of_asc_node": 142.1446,
        "meta_arg_of_pericenter": 90.5898,
        "meta_mean_anomaly": 269.5621,
        "meta_ephemeris_type": 0,
        "meta_classification_type": "U",
        "meta_norad_cat_id": 35681,
        "meta_element_set_no": 999,
        "meta_rev_at_epoch": 87859,
        "meta_bstar": 0.00020617173,
        "meta_mean_motion_dot": 1.338e-05,
        "meta_mean_motion_ddot": 0,
        "tle_line1": "1 35681U 09041A   25341.28699836  .00001338  00000+0  20617-3 0  9996",
        "tle_line2": "2 35681  97.7153 142.1446 0002695  90.5898 269.5621 14.74940019878597"
      },
      "geometry": {
        "type": "Point",
        "coordinates": [
          151.57759504386698,
          -47.80838572229745
        ]
      }
    },
    {
      "type": "Feature",
      "properties": {
        "norad_id": 35683,
        "name": "UK-DMC 2",
        "group": "dmc",
        "lat": -43.82704435033233,
        "lon": 124.80820152104769,
        "alt_km": 650.6761878163552,
        "timestamp": "2025-12-08T03:50:06.671487+00:00",
        "meta_object_name": "UK-DMC 2",
        "meta_object_id": "2009-041C",
        "meta_epoch": "2025-12-07T06:52:44.852736",
        "meta_mean_motion": 14.75603696,
        "meta_eccentricity": 0.00013429,
        "meta_inclination": 97.8564,
        "meta_ra_of_asc_node": 116.3437,
        "meta_arg_of_pericenter": 101.6478,
        "meta_mean_anomaly": 258.4882,
        "meta_ephemeris_type": 0,
        "meta_classification_type": "U",
        "meta_norad_cat_id": 35683,
        "meta_element_set_no": 999,
        "meta_rev_at_epoch": 87826,
        "meta_bstar": 0.00029255839,
        "meta_mean_motion_dot": 1.947e-05,
        "meta_mean_motion_ddot": 0,
        "tle_line1": "1 35683U 09041C   25341.28663024  .00001947  00000+0  29256-3 0  9992",
        "tle_line2": "2 35683  97.8564 116.3437 0001342 101.6478 258.4882 14.75603696878263"
      },
      "geometry": {
        "type": "Point",
        "coordinates": [
          124.80820152104769,
          -43.82704435033233
        ]
      }
    },
    {
      "type": "Feature",
      "properties": {
        "norad_id": 40715,
        "name": "DMC3-FM1",
        "group": "dmc",
        "lat": -22.970539667125955,
        "lon": 26.244166767850317,
        "alt_km": 620.200636611662,
        "timestamp": "2025-12-08T03:50:06.671499+00:00",
        "meta_object_name": "DMC3-FM1",
        "meta_object_id": "2015-032A",
        "meta_epoch": "2025-12-07T05:54:23.429664",
        "meta_mean_motion": 14.85425996,
        "meta_eccentricity": 0.00050066,
        "meta_inclination": 97.6703,
        "meta_ra_of_asc_node": 208.6387,
        "meta_arg_of_pericenter": 341.2963,
        "meta_mean_anomaly": 18.8068,
        "meta_ephemeris_type": 0,
        "meta_classification_type": "U",
        "meta_norad_cat_id": 40715,
        "meta_element_set_no": 999,
        "meta_rev_at_epoch": 56141,
        "meta_bstar": 0.00017855103,
        "meta_mean_motion_dot": 1.487e-05,
        "meta_mean_motion_ddot": 0,
        "tle_line1": "1 40715U 15032A   25341.24610451  .00001487  00000+0  17855-3 0  9994",
        "tle_line2": "2 40715  97.6703 208.6387 0005006 341.2963  18.8068 14.85425996561415"
      },
      "geometry": {
        "type": "Point",
        "coordinates": [
          26.244166767850317,
          -22.970539667125955
        ]
      }
    },
    {
      "type": "Feature",
      "properties": {
        "norad_id": 40716,
        "name": "DMC3-FM2",
        "group": "dmc",
        "lat": 79.56344489634047,
        "lon": 163.88687568737484,
        "alt_km": 605.5705068333509,
        "timestamp": "2025-12-08T03:50:06.671509+00:00",
        "meta_object_name": "DMC3-FM2",
        "meta_object_id": "2015-032B",
        "meta_epoch": "2025-12-07T06:26:47.638752",
        "meta_mean_motion": 14.85427368,
        "meta_eccentricity": 0.00056421,
        "meta_inclination": 97.676,
        "meta_ra_of_asc_node": 210.1003,
        "meta_arg_of_pericenter": 345.6248,
        "meta_mean_anomaly": 14.4806,
        "meta_ephemeris_type": 0,
        "meta_classification_type": "U",
        "meta_norad_cat_id": 40716,
        "meta_element_set_no": 999,
        "meta_rev_at_epoch": 56141,
        "meta_bstar": 0.00018150328,
        "meta_mean_motion_dot": 1.513e-05,
        "meta_mean_motion_ddot": 0,
        "tle_line1": "1 40716U 15032B   25341.26860693  .00001513  00000+0  18150-3 0  9991",
        "tle_line2": "2 40716  97.6760 210.1003 0005642 345.6248  14.4806 14.85427368561419"
      },
      "geometry": {
        "type": "Point",
        "coordinates": [
          163.88687568737484,
          79.56344489634047
        ]
      }
    },
    {
      "type": "Feature",
      "properties": {
        "norad_id": 40717,
        "name": "DMC3-FM3",
        "group": "dmc",
        "lat": -32.324863723301156,
        "lon": -142.51114228276143,
        "alt_km": 615.0657076589787,
        "timestamp": "2025-12-08T03:50:06.671519+00:00",
        "meta_object_name": "DMC3-FM3",
        "meta_object_id": "2015-032C",
        "meta_epoch": "2025-12-07T05:20:52.664928",
        "meta_mean_motion": 14.85418512,
        "meta_eccentricity": 0.00050013,
        "meta_inclination": 97.6815,
        "meta_ra_of_asc_node": 211.6856,
        "meta_arg_of_pericenter": 347.9494,
        "meta_mean_anomaly": 12.1601,
        "meta_ephemeris_type": 0,
        "meta_classification_type": "U",
        "meta_norad_cat_id": 40717,
        "meta_element_set_no": 999,
        "meta_rev_at_epoch": 56141,
        "meta_bstar": 0.00015302192,
        "meta_mean_motion_dot": 1.267e-05,
        "meta_mean_motion_ddot": 0,
        "tle_line1": "1 40717U 15032C   25341.22283177  .00001267  00000+0  15302-3 0  9996",
        "tle_line2": "2 40717  97.6815 211.6856 0005001 347.9494  12.1601 14.85418512561419"
      },
      "geometry": {
        "type": "Point",
        "coordinates": [
          -142.51114228276143,
          -32.324863723301156
        ]
      }
    }
  ]
}